38040,GLOBALSTAR M084,2011,114.08,700.0,+,52.0,Active,1,LEO,Kazakhstan,Globalstar,Commercial,Communications,Soyuz,1 38040U 11080A   24077.97577233 -.00000079  00000+0  13694-3 0  9990,2 38040  52.0039 357.3474 0000830  91.3756 349.5906 12.62272112565054,12.62272112,8.3e-05,LEO
38041,GLOBALSTAR M080,2011,114.08,700.0,+,52.01,Active,1,LEO,Kazakhstan,Globalstar,Commercial,Communications,Soyuz,1 38041U 11080B   24078.20164503 -.00000089  00000+0  81617-4 0  9992,2 38041  52.0091 358.1075 0000989  85.4966  61.4885 12.62269815565200,12.62269815,9.89e-05,LEO
38042,GLOBALSTAR M082,2011,114.08,700.0,+,52.01,Active,1,LEO,Kazakhstan,Globalstar,Commercial,Communications,Soyuz,1 38042U 11080C   24078.05664753 -.00000073  00000+0  16960-3 0  9999,2 38042  52.0085 313.9491 0000171  47.2030 100.7064 12.62267024565897,12.62267024,1.71e-05,LEO
38043,GLOBALSTAR M092,2011,114.08,700.0,+,52.01,Active,1,LEO,Kazakhstan,Globalstar,Commercial,Communications,Soyuz,1 38043U 11080D   24078.09458039 -.00000105  00000+0 -63494-5 0  9995,2 38043  52.0097  44.1810 0000481 110.8746 329.2521 12.62276762564359,12.62276762,4.81e-05,LEO
38044,GLOBALSTAR M090,2011,114.08,700.0,+,51.99,Active,1,LEO,Kazakhstan,Globalstar,Commercial,Communications,Soyuz,1 38044U 11080E   24077.84094059 -.00000080  00000+0  13181-3 0  9993,2 38044  51.9891 309.0008 0000492  69.2748  59.0304 12.62267217565985,12.62267217,4.92e-05,LEO
38045,GLOBALSTAR M086,2011,114.08,700.0,+,51.99,Active,1,LEO,Kazakhstan,Globalstar,Commercial,Communications,Soyuz,1 38045U 11080F   24078.02997870 -.00000071  00000+0  18201-3 0  9996,2 38045  51.9903 308.9417 0001519  51.6751  95.4785 12.62268439565953,12.62268439,0.0001519,LEO
39072,GLOBALSTAR M097,2013,114.08,700.0,+,52.0,Active,1,LEO,Kazakhstan,Globalstar,Commercial,Communications,Soyuz,1 39072U 13005A   24077.70733682 -.00000095  00000+0  50597-4 0  9990,2 39072  52.0030 224.0040 0000667  80.9034 279.1908 12.62261662513164,12.62261662,6.67e-05,LEO
39073,GLOBALSTAR M093,2013,114.08,700.0,+,51.98,Active,1,LEO,Kazakhstan,Globalstar,Commercial,Communications,Soyuz,1 39073U 13005B   24077.68077037 -.00000086  00000+0  96970-4 0  9998,2 39073  51.9794 218.1177 0000629  75.1677 284.9259 12.62262090513116,12.6226209,6.29e-05,LEO
